NORAD_CAT_ID,OBJECT_NAME,OBJECT_TYPE,EPOCH,MEAN_MOTION,ECCENTRICITY,INCLINATION,RA_OF_ASC_NODE,ARG_OF_PERICENTER,MEAN_ANOMALY,BSTAR,MEAN_MOTION_DOT,MEAN_MOTION_DDOT,TLE_LINE0,TLE_LINE1,TLE_LINE2,SEMIMAJOR_AXIS,PERIOD,APOGEE,PERIGEE,DECAYED
55768.0,STARLINK-5583,PAYLOAD,2023-08-09 20:32:24,14.98329733,0.0003194,69.9987,81.7569,271.9967,88.0826,2.0159e-05,1.47e-06,0.0,0 STARLINK-5583,1 55768U 23028AD  23221.85584176  .00000147  00000-0  20159-4 0  9993,2 55768  69.9987  81.7569 0003194 271.9967  88.0826 14.98329733 25294,6950.194,96.107,574.279,569.839,0.0
55768.0,STARLINK-5583,PAYLOAD,2023-08-10 20:34:25,14.98334803,0.0003071,69.9992,79.232,271.8298,88.2509,-2.0885e-05,-3.42e-06,0.0,0 STARLINK-5583,1 55768U 23028AD  23222.85723562 -.00000342  00000-0 -20885-4 0  9993,2 55768  69.9992  79.2320 0003071 271.8298  88.2509 14.98334803 25448,6950.178,96.107,574.177,569.909,0.0
55768.0,STARLINK-5583,PAYLOAD,2023-08-11 17:24:10,14.98328029,0.000313,69.9992,77.0441,274.2031,85.8771,-3.1291e-05,-4.66e-06,0.0,0 STARLINK-5583,1 55768U 23028AD  23223.72511825 -.00000466  00000-0 -31291-4 0  9997,2 55768  69.9992  77.0441 0003130 274.2031  85.8771 14.98328029 25577,6950.199,96.107,574.239,569.889,0.0
55768.0,STARLINK-5583,PAYLOAD,2023-08-12 23:50:43,14.98332311,0.0003057,69.9992,73.8454,272.285,87.7959,1.8134e-05,1.23e-06,0.0,0 STARLINK-5583,1 55768U 23028AD  23224.99355343  .00000123  00000-0  18134-4 0  9997,2 55768  69.9992  73.8454 0003057 272.2850  87.7959 14.98332311 25769,6950.186,96.107,574.175,569.926,0.0
55768.0,STARLINK-5583,PAYLOAD,2023-08-14 01:28:52,14.98329458,0.0003115,69.9992,71.1512,273.3927,86.6876,2.7114e-05,2.31e-06,0.0,0 STARLINK-5583,1 55768U 23028AD  23226.06171520  .00000231  00000-0  27114-4 0  9998,2 55768  69.9992  71.1512 0003115 273.3927  86.6876 14.98329458 25929,6950.195,96.107,574.225,569.895,0.0
55768.0,STARLINK-5583,PAYLOAD,2023-08-15 23:56:45,14.98332884,0.0003169,69.9991,66.27,271.4777,88.6019,5.5698e-05,5.72e-06,0.0,0 STARLINK-5583,1 55768U 23028AD  23227.99775112  .00000572  00000-0  55698-4 0  9994,2 55768  69.9991  66.2700 0003169 271.4777  88.6019 14.98332884 26214,6950.184,96.107,574.251,569.846,0.0
55768.0,STARLINK-5583,PAYLOAD,2023-08-16 19:10:24,14.98317935,0.0003292,69.9974,64.2496,270.9122,89.166,-0.00015847,-1.983e-05,0.0,0 STARLINK-5583,1 55768U 23028AD  23228.79888921 -.00001983  00000-0 -15847-3 0  9996,2 55768  69.9974  64.2496 0003292 270.9122  89.1660 14.98317935 26331,6950.23,96.108,574.383,569.807,0.0
55768.0,STARLINK-5583,PAYLOAD,2023-08-16 23:58:48,14.98289619,0.0002859,69.996,63.746,272.1757,87.9075,0.00034184,3.984e-05,0.0,0 STARLINK-5583,1 55768U 23028AD  23228.99917354  .00003984  00000-0  34184-3 0  9997,2 55768  69.9960  63.7460 0002859 272.1757  87.9075 14.98289619 26363,6950.318,96.11,574.17,570.196,0.0
55768.0,STARLINK-5583,PAYLOAD,2023-08-17 22:24:40,14.98321694,0.0002957,69.9992,61.3889,270.0605,90.0215,0.00010391,1.147e-05,0.0,0 STARLINK-5583,1 55768U 23028AD  23229.93380235  .00001147  00000-0  10391-3 0  9997,2 55768  69.9992  61.3889 0002957 270.0605  90.0215 14.98321694 26502,6950.219,96.108,574.139,570.028,0.0
55768.0,STARLINK-5583,PAYLOAD,2023-08-18 14:26:00,14.98333272,0.0003102,69.9987,59.7054,270.3824,89.698,0.00012395,1.386e-05,0.0,0 STARLINK-5583,1 55768U 23028AD  23230.60139604  .00001386  00000-0  12395-3 0  9996,2 55768  69.9987  59.7054 0003102 270.3824  89.6980 14.98333272 26609,6950.183,96.107,574.204,569.892,0.0
55768.0,STARLINK-5583,PAYLOAD,2023-08-19 22:28:41,14.98335724,0.0003001,69.9987,56.3379,268.0837,91.9978,3.5556e-06,-5.1e-07,0.0,0 STARLINK-5583,1 55768U 23028AD  23231.93659309 -.00000051  00000-0  35556-5 0  9997,2 55768  69.9987  56.3379 0003001 268.0837  91.9978 14.98335724 26807,6950.175,96.107,574.126,569.954,0.0
55768.0,STARLINK-5583,PAYLOAD,2023-08-21 00:06:51,14.98304801,0.0002677,69.9998,53.645,269.6638,90.4215,0.0005045,5.928e-05,0.0,0 STARLINK-5583,1 55768U 23028AD  23233.00475790  .00005928  00000-0  50450-3 0  9992,2 55768  69.9998  53.6450 0002677 269.6638  90.4215 14.98304801 26960,6950.271,96.109,573.996,570.275,0.0
55768.0,STARLINK-5583,PAYLOAD,2023-08-21 11:19:47,14.98336166,0.0002785,69.9999,52.4652,270.9555,89.1285,-0.00012517,-1.586e-05,0.0,0 STARLINK-5583,1 55768U 23028AD  23233.47207191 -.00001586  00000-0 -12517-3 0  9991,2 55768  69.9999  52.4652 0002785 270.9555  89.1285 14.98336166 27035,6950.174,96.107,573.974,570.103,0.0
55768.0,STARLINK-5583,PAYLOAD,2023-08-22 11:21:47,14.98324083,0.0002756,70.0001,49.9421,268.391,91.6933,5.7253e-05,5.9e-06,0.0,0 STARLINK-5583,1 55768U 23028AD  23234.47347204  .00000590  00000-0  57253-4 0  9991,2 55768  70.0001  49.9421 0002756 268.3910  91.6933 14.98324083 27180,6950.211,96.107,573.992,570.161,0.0
55768.0,STARLINK-5583,PAYLOAD,2023-08-23 11:23:48,14.98328234,0.0002842,70.0002,47.4172,271.6674,88.416,-3.4267e-06,-1.34e-06,0.0,0 STARLINK-5583,1 55768U 23028AD  23235.47487216 -.00000134  00000-0 -34267-5 0  9997,2 55768  70.0002  47.4172 0002842 271.6674  88.4160 14.98328234 27332,6950.198,96.107,574.039,570.088,0.0
55768.0,STARLINK-5583,PAYLOAD,2023-08-24 11:25:49,14.98329493,0.0003037,70.0003,44.8923,266.5542,93.5269,2.6021e-05,2.17e-06,0.0,0 STARLINK-5583,1 55768U 23028AD  23236.47626981  .00000217  00000-0  26021-4 0  9990,2 55768  70.0003  44.8923 0003037 266.5542  93.5269 14.98329493 27483,6950.194,96.107,574.17,569.949,0.0
55768.0,STARLINK-5583,PAYLOAD,2023-08-24 21:02:37,14.98331871,0.0003036,70.0004,43.8819,268.0192,92.0619,4.6646e-05,4.64e-06,0.0,0 STARLINK-5583,1 55768U 23028AD  23236.87682753  .00000464  00000-0  46646-4 0  9992,2 55768  70.0004  43.8819 0003036 268.0192  92.0619 14.98331871 27558,6950.187,96.107,574.162,569.942,0.0
55768.0,STARLINK-5583,PAYLOAD,2023-08-25 13:03:58,14.98331171,0.0003049,70.0004,42.1984,268.6763,91.4047,-1.2312e-07,-9.4e-07,0.0,0 STARLINK-5583,1 55768U 23028AD  23237.54442835 -.00000094  00000-0 -12312-6 0  9998,2 55768  70.0004  42.1984 0003049 268.6763  91.4047 14.98331171 27659,6950.189,96.107,574.173,569.935,0.0
55768.0,STARLINK-5583,PAYLOAD,2023-08-25 19:28:30,14.98332954,0.0003003,70.0003,41.525,267.9835,92.098,2.1466e-05,1.63e-06,0.0,0 STARLINK-5583,1 55768U 23028AD  23237.81146617  .00000163  00000-0  21466-4 0  9990,2 55768  70.0003  41.5250 0003003 267.9835  92.0980 14.98332954 27685,6950.184,96.107,574.136,569.962,0.0
55768.0,STARLINK-5583,PAYLOAD,2023-08-26 11:29:51,14.98330212,0.000287,70.0005,39.8416,268.2839,91.7992,-2.8807e-05,-4.37e-06,0.0,0 STARLINK-5583,1 55768U 23028AD  23238.47906864 -.00000437  00000-0 -28807-4 0  9993,2 55768  70.0005  39.8416 0002870 268.2839  91.7992 14.98330212 27796,6950.192,96.107,574.052,570.063,0.0
55768.0,STARLINK-5583,PAYLOAD,2023-08-26 21:06:39,14.98330749,0.0002876,70.0007,38.8318,268.4228,91.6602,-1.9797e-05,-3.29e-06,0.0,0 STARLINK-5583,1 55768U 23028AD  23238.87962783 -.00000329  00000-0 -19797-4 0  9997,2 55768  70.0007  38.8318 0002876 268.4228  91.6602 14.98330749 27857,6950.191,96.107,574.054,570.057,0.0
55768.0,STARLINK-5583,PAYLOAD,2023-08-27 21:08:40,14.9833104,0.0002845,70.0009,36.307,265.1453,94.9381,3.4215e-06,-5.2e-07,0.0,0 STARLINK-5583,1 55768U 23028AD  23239.88102609 -.00000052  00000-0  34215-5 0  9997,2 55768  70.0009  36.3070 0002845 265.1453  94.9381 14.98331040 28000,6950.19,96.107,574.032,570.077,0.0
55768.0,STARLINK-5583,PAYLOAD,2023-08-27 22:44:48,14.98334279,0.0003005,70.0004,36.1382,273.1589,86.9227,2.3838e-05,1.91e-06,0.0,0 STARLINK-5583,1 55768U 23028AD  23239.94778372  .00000191  00000-0  23838-4 0  9991,2 55768  70.0004  36.1382 0003005 273.1589  86.9227 14.98334279 28004,6950.18,96.107,574.133,569.956,0.0
55768.0,STARLINK-5583,PAYLOAD,2023-08-28 16:22:17,14.98328076,0.0002946,70.0006,34.2869,268.3934,91.6888,-1.8887e-07,-9.5e-07,0.0,0 STARLINK-5583,1 55768U 23028AD  23240.68214828 -.00000095  00000-0 -18887-6 0  9990,2 55768  70.0006  34.2869 0002946 268.3934  91.6888 14.98328076 28114,6950.199,96.107,574.111,570.016,0.0
55768.0,STARLINK-5583,PAYLOAD,2023-08-29 03:35:14,14.9831554,0.0003034,70.0003,33.1087,270.7951,89.2861,0.0001493,1.688e-05,0.0,0 STARLINK-5583,1 55768U 23028AD  23241.14947346  .00001688  00000-0  14930-3 0  9999,2 55768  70.0003  33.1087 0003034 270.7951  89.2861 14.98315540 28189,6950.238,96.108,574.211,569.994,0.0
55768.0,STARLINK-5583,PAYLOAD,2023-08-29 19:36:35,14.98319518,0.0002954,70.0007,31.4253,268.4216,91.6605,-9.6193e-05,-1.24e-05,0.0,0 STARLINK-5583,1 55768U 23028AD  23241.81708051 -.00001240  00000-0 -96193-4 0  9999,2 55768  70.0007  31.4253 0002954 268.4216  91.6605 14.98319518 28291,6950.225,96.108,574.143,570.037,0.0
55768.0,STARLINK-5583,PAYLOAD,2023-08-30 16:26:20,14.98327393,0.0003045,70.0006,29.2371,268.992,91.0891,2.9089e-05,2.54e-06,0.0,0 STARLINK-5583,1 55768U 23028AD  23242.68495505  .00000254  00000-0  29089-4 0  9994,2 55768  70.0006  29.2371 0003045 268.9920  91.0891 14.98327393 28410,6950.201,96.107,574.182,569.95,0.0
55768.0,STARLINK-5583,PAYLOAD,2023-08-31 03:39:16,14.98333955,0.0002996,70.0011,28.0586,271.8415,88.2401,4.5003e-05,4.44e-06,0.0,0 STARLINK-5583,1 55768U 23028AD  23243.15227035  .00000444  00000-0  45003-4 0  9993,2 55768  70.0011  28.0586 0002996 271.8415  88.2401 14.98333955 28480,6950.181,96.107,574.128,569.963,0.0
55768.0,STARLINK-5583,PAYLOAD,2023-08-31 19:40:36,14.9833776,0.0002996,70.001,26.3762,273.2455,86.8361,0.00020235,2.323e-05,0.0,0 STARLINK-5583,1 55768U 23028AD  23243.81986184  .00002323  00000-0  20235-3 0  9990,2 55768  70.0010  26.3762 0002996 273.2455  86.8361 14.98337760 28595,6950.169,96.107,574.116,569.952,0.0
55768.0,STARLINK-5583,PAYLOAD,2023-09-01 08:29:40,14.98338562,0.0002498,69.999,25.0311,283.8173,76.2708,0.00010471,1.157e-05,0.0,0 STARLINK-5583,1 55768U 23028AD  23244.35394402  .00001157  00000-0  10471-3 0  9991,2 55768  69.9990  25.0311 0002498 283.8173  76.2708 14.98338562 28674,6950.166,96.106,573.768,570.295,0.0
